[{"OBJECT_NAME":"GMS-T","OBJECT_ID":"2021-004A","EPOCH":"2026-03-09T21:58:54.862464","MEAN_MOTION":13.16656588,"ECCENTRICITY":0.00016531,"INCLINATION":90.1169,"RA_OF_ASC_NODE":240.6396,"ARG_OF_PERICENTER":357.5234,"MEAN_ANOMALY":2.5889,"EPHEMERIS_TYPE":0,"CLASSIFICATION_TYPE":"U","NORAD_CAT_ID":47346,"ELEMENT_SET_NO":999,"REV_AT_EPOCH":24653,"BSTAR":0.00013651536,"MEAN_MOTION_DOT":6.0e-7,"MEAN_MOTION_DDOT":0},{"OBJECT_NAME":"ONEWEB-0679","OBJECT_ID":"2023-068F","EPOCH":"2026-03-09T21:58:32.448576","MEAN_MOTION":13.16593761,"ECCENTRICITY":0.00013538,"INCLINATION":87.9012,"RA_OF_ASC_NODE":248.5082,"ARG_OF_PERICENTER":74.9432,"MEAN_ANOMALY":285.1848,"EPHEMERIS_TYPE":0,"CLASSIFICATION_TYPE":"U","NORAD_CAT_ID":56715,"ELEMENT_SET_NO":999,"REV_AT_EPOCH":13866,"BSTAR":-9.875507e-6,"MEAN_MOTION_DOT":9.0e-8,"MEAN_MOTION_DDOT":0}]
